{
  "norad_id": 55368,
  "name": "STARLINK-5625",
  "history": [
    {
      "epoch": "2026-03-28T13:33:12.861216",
      "apogee_km": 486.5455001730488,
      "perigee_km": 483.81664490740695,
      "latitude_deg": -8.886146483979465,
      "longitude_deg": 131.0142902401276,
      "semi_major_axis_km": 6863.318072540228,
      "eccentricity": 0.0001988,
      "inclination_deg": 43.0014,
      "raan_deg": 181.7894,
      "arg_perigee_deg": 280.2967,
      "mean_anomaly_deg": 79.7661,
      "mean_motion_rev_day": 15.26868279
    }
  ]
}